[
    {
        "Altitude(m)": 705270.0297623506,
        "Argument of Periapsis(deg)": 0.0022780242373254137,
        "Eccentricity": 0.0,
        "Inclination(deg)": 45.0,
        "Latitude(deg)": -10.002333806465463,
        "Longitude(deg)": 149.76654455822438,
        "Mean Anomaly(deg)": -14.056956670503894,
        "RAAN(deg)": 259.9978496117084,
        "Satellite Name": "Constellation 1 1165",
        "Satellite Number": 1165,
        "Semi-Major Axis(m)": 7083131.272910544,
        "Time(s)": 38
    },
    {
        "Altitude(m)": 705259.9915968298,
        "Argument of Periapsis(deg)": 0.002337972243570819,
        "Eccentricity": 0.0,
        "Inclination(deg)": 45.0,
        "Latitude(deg)": -9.959816791339671,
        "Longitude(deg)": 149.80659210682256,
        "Mean Anomaly(deg)": -13.996255530253956,
        "RAAN(deg)": 259.9977930225428,
        "Satellite Name": "Constellation 1 1165",
        "Satellite Number": 1165,
        "Semi-Major Axis(m)": 7083131.272910544,
        "Time(s)": 39
    },
    {
        "Altitude(m)": 705249.97015902,
        "Argument of Periapsis(deg)": 0.0023979202498162246,
        "Eccentricity": 0.0,
        "Inclination(deg)": 45.0,
        "Latitude(deg)": -9.91729374756424,
        "Longitude(deg)": 149.84662832280245,
        "Mean Anomaly(deg)": -13.935554390004068,
        "RAAN(deg)": 259.9977364333772,
        "Satellite Name": "Constellation 1 1165",
        "Satellite Number": 1165,
        "Semi-Major Axis(m)": 7083131.272910544,
        "Time(s)": 40
    },
    {
        "Altitude(m)": 705239.9654758526,
        "Argument of Periapsis(deg)": 0.00245786825606163,
        "Eccentricity": 0.0,
        "Inclination(deg)": 45.0,
        "Latitude(deg)": -9.87476470246984,
        "Longitude(deg)": 149.88665325715692,
        "Mean Anomaly(deg)": -13.87485324975413,
        "RAAN(deg)": 259.9976798442117,
        "Satellite Name": "Constellation 1 1165",
        "Satellite Number": 1165,
        "Semi-Major Axis(m)": 7083131.272910544,
        "Time(s)": 41
    },
    {
        "Altitude(m)": 705229.9775741838,
        "Argument of Periapsis(deg)": 0.002517816262307036,
        "Eccentricity": 0.0,
        "Inclination(deg)": 45.0,
        "Latitude(deg)": -9.832229683366078,
        "Longitude(deg)": 149.92666696085587,
        "Mean Anomaly(deg)": -13.814152109504345,
        "RAAN(deg)": 259.99762325504605,
        "Satellite Name": "Constellation 1 1165",
        "Satellite Number": 1165,
        "Semi-Major Axis(m)": 7083131.272910544,
        "Time(s)": 42
    },
    {
        "Altitude(m)": 705220.0064808056,
        "Argument of Periapsis(deg)": 0.0025777642685524413,
        "Eccentricity": 0.0,
        "Inclination(deg)": 45.0,
        "Latitude(deg)": -9.78968871754081,
        "Longitude(deg)": 149.96666948484696,
        "Mean Anomaly(deg)": -13.753450969254407,
        "RAAN(deg)": 259.9975666658805,
        "Satellite Name": "Constellation 1 1165",
        "Satellite Number": 1165,
        "Semi-Major Axis(m)": 7083131.272910544,
        "Time(s)": 43
    },
    {
        "Altitude(m)": 705210.0522224064,
        "Argument of Periapsis(deg)": 0.002637712274797847,
        "Eccentricity": 0.0,
        "Inclination(deg)": 45.0,
        "Latitude(deg)": -9.747141832260965,
        "Longitude(deg)": 150.00666071195823,
        "Mean Anomaly(deg)": -13.692749829004471,
        "RAAN(deg)": 259.99751007671495,
        "Satellite Name": "Constellation 1 1165",
        "Satellite Number": 1165,
        "Semi-Major Axis(m)": 7083131.272910544,
        "Time(s)": 44
    },
    {
        "Altitude(m)": 705200.1148256114,
        "Argument of Periapsis(deg)": 0.0026976602810432526,
        "Eccentricity": 0.0,
        "Inclination(deg)": 45.0,
        "Latitude(deg)": -9.704589054773013,
        "Longitude(deg)": 150.04664102928638,
        "Mean Anomaly(deg)": -13.632048688754534,
        "RAAN(deg)": 259.9974534875494,
        "Satellite Name": "Constellation 1 1165",
        "Satellite Number": 1165,
        "Semi-Major Axis(m)": 7083131.272910544,
        "Time(s)": 45
    },
    {
        "Altitude(m)": 705190.1943169552,
        "Argument of Periapsis(deg)": 0.0027576082872886585,
        "Eccentricity": 0.0,
        "Inclination(deg)": 45.0,
        "Latitude(deg)": -9.662030412301837,
        "Longitude(deg)": 150.0866103196146,
        "Mean Anomaly(deg)": -13.571347548504699,
        "RAAN(deg)": 259.99739689838384,
        "Satellite Name": "Constellation 1 1165",
        "Satellite Number": 1165,
        "Semi-Major Axis(m)": 7083131.272910544,
        "Time(s)": 46
    },
    {
        "Altitude(m)": 705180.290722896,
        "Argument of Periapsis(deg)": 0.0028175562935340644,
        "Eccentricity": 0.0,
        "Inclination(deg)": 45.0,
        "Latitude(deg)": -9.61946593205141,
        "Longitude(deg)": 150.12656863380147,
        "Mean Anomaly(deg)": -13.510646408254761,
        "RAAN(deg)": 259.9973403092182,
        "Satellite Name": "Constellation 1 1165",
        "Satellite Number": 1165,
        "Semi-Major Axis(m)": 7083131.272910544,
        "Time(s)": 47
    },
    {
        "Altitude(m)": 705170.4040698106,
        "Argument of Periapsis(deg)": 0.00287750429977947,
        "Eccentricity": 0.0,
        "Inclination(deg)": 45.0,
        "Latitude(deg)": -9.576895641205285,
        "Longitude(deg)": 150.1665160226829,
        "Mean Anomaly(deg)": -13.449945268004823,
        "RAAN(deg)": 259.9972837200527,
        "Satellite Name": "Constellation 1 1165",
        "Satellite Number": 1165,
        "Semi-Major Axis(m)": 7083131.272910544,
        "Time(s)": 48
    },
    {
        "Altitude(m)": 705160.534383993,
        "Argument of Periapsis(deg)": 0.002937452306024875,
        "Eccentricity": 0.0,
        "Inclination(deg)": 45.0,
        "Latitude(deg)": -9.534319566926406,
        "Longitude(deg)": 150.20645253707283,
        "Mean Anomaly(deg)": -13.389244127755038,
        "RAAN(deg)": 259.9972271308871,
        "Satellite Name": "Constellation 1 1165",
        "Satellite Number": 1165,
        "Semi-Major Axis(m)": 7083131.272910544,
        "Time(s)": 49
    },
    {
        "Altitude(m)": 705150.6816916585,
        "Argument of Periapsis(deg)": 0.0029974003122702807,
        "Eccentricity": 0.0,
        "Inclination(deg)": 45.0,
        "Latitude(deg)": -9.491737736356729,
        "Longitude(deg)": 150.24637822776356,
        "Mean Anomaly(deg)": -13.328542987505102,
        "RAAN(deg)": 259.9971705417216,
        "Satellite Name": "Constellation 1 1165",
        "Satellite Number": 1165,
        "Semi-Major Axis(m)": 7083131.272910544,
        "Time(s)": 50
    },
    {
        "Altitude(m)": 705140.84601894,
        "Argument of Periapsis(deg)": 0.0030573483185156866,
        "Eccentricity": 0.0,
        "Inclination(deg)": 45.0,
        "Latitude(deg)": -9.449150176618163,
        "Longitude(deg)": 150.28629314552524,
        "Mean Anomaly(deg)": -13.267841847255113,
        "RAAN(deg)": 259.99711395255594,
        "Satellite Name": "Constellation 1 1165",
        "Satellite Number": 1165,
        "Semi-Major Axis(m)": 7083131.272910544,
        "Time(s)": 51
    },
    {
        "Altitude(m)": 705131.0273918854,
        "Argument of Periapsis(deg)": 0.003117296324761092,
        "Eccentricity": 0.0,
        "Inclination(deg)": 45.0,
        "Latitude(deg)": -9.40655691481206,
        "Longitude(deg)": 150.32619717300918,
        "Mean Anomaly(deg)": -13.207140707005278,
        "RAAN(deg)": 259.99705736339035,
        "Satellite Name": "Constellation 1 1165",
        "Satellite Number": 1165,
        "Semi-Major Axis(m)": 7083131.272910544,
        "Time(s)": 52
    },
    {
        "Altitude(m)": 705121.2258364735,
        "Argument of Periapsis(deg)": 0.0031772443310064975,
        "Eccentricity": 0.0,
        "Inclination(deg)": 45.0,
        "Latitude(deg)": -9.363957978020021,
        "Longitude(deg)": 150.3660906971362,
        "Mean Anomaly(deg)": -13.14643956675539,
        "RAAN(deg)": 259.99700077422483,
        "Satellite Name": "Constellation 1 1165",
        "Satellite Number": 1165,
        "Semi-Major Axis(m)": 7083131.272910544,
        "Time(s)": 53
    },
    {
        "Altitude(m)": 705111.4413785795,
        "Argument of Periapsis(deg)": 0.0032371923372519038,
        "Eccentricity": 0.0,
        "Inclination(deg)": 45.0,
        "Latitude(deg)": -9.321353393302786,
        "Longitude(deg)": 150.40597360051453,
        "Mean Anomaly(deg)": -13.085738426505454,
        "RAAN(deg)": 259.99694418505925,
        "Satellite Name": "Constellation 1 1165",
        "Satellite Number": 1165,
        "Semi-Major Axis(m)": 7083131.272910544,
        "Time(s)": 54
    },
    {
        "Altitude(m)": 705101.6740440169,
        "Argument of Periapsis(deg)": 0.0032971403434973088,
        "Eccentricity": 0.0,
        "Inclination(deg)": 45.0,
        "Latitude(deg)": -9.278743187701432,
        "Longitude(deg)": 150.44584593382746,
        "Mean Anomaly(deg)": -13.025037286255516,
        "RAAN(deg)": 259.9968875958937,
        "Satellite Name": "Constellation 1 1165",
        "Satellite Number": 1165,
        "Semi-Major Axis(m)": 7083131.272910544,
        "Time(s)": 55
    },
    {
        "Altitude(m)": 705091.9238585137,
        "Argument of Periapsis(deg)": 0.0033570883497427146,
        "Eccentricity": 0.0,
        "Inclination(deg)": 45.0,
        "Latitude(deg)": -9.23612738823712,
        "Longitude(deg)": 150.48570774773708,
        "Mean Anomaly(deg)": -12.964336146005682,
        "RAAN(deg)": 259.9968310067281,
        "Satellite Name": "Constellation 1 1165",
        "Satellite Number": 1165,
        "Semi-Major Axis(m)": 7083131.272910544,
        "Time(s)": 56
    }
]